[{"OBJECT_NAME":"STARLINK-3546","OBJECT_ID":"2022-016E","EPOCH":"2026-03-09T22:22:52.542048","MEAN_MOTION":15.15260371,"ECCENTRICITY":4.574e-5,"INCLINATION":53.2162,"RA_OF_ASC_NODE":325.333,"ARG_OF_PERICENTER":337.214,"MEAN_ANOMALY":22.8835,"EPHEMERIS_TYPE":0,"CLASSIFICATION_TYPE":"U","NORAD_CAT_ID":51718,"ELEMENT_SET_NO":999,"REV_AT_EPOCH":22462,"BSTAR":0.0017256751,"MEAN_MOTION_DOT":0.00032685,"MEAN_MOTION_DDOT":0},{"OBJECT_NAME":"AC1-001","OBJECT_ID":"2025-276CG","EPOCH":"2026-03-09T17:01:33.320352","MEAN_MOTION":15.17859032,"ECCENTRICITY":0.00029713,"INCLINATION":97.4276,"RA_OF_ASC_NODE":143.9133,"ARG_OF_PERICENTER":22.5153,"MEAN_ANOMALY":337.6211,"EPHEMERIS_TYPE":0,"CLASSIFICATION_TYPE":"U","NORAD_CAT_ID":66744,"ELEMENT_SET_NO":999,"REV_AT_EPOCH":1531,"BSTAR":0.00015685354,"MEAN_MOTION_DOT":3.109e-5,"MEAN_MOTION_DDOT":0}]
